MEAN_MOTION;ECCENTRICITY;INCLINATION;RA_OF_ASC_NODE;ARG_OF_PERICENTER;MEAN_ANOMALY;BSTAR;MEAN_MOTION_DOT;MEAN_MOTION_DDOT;TYPE
14.34219013;0.000229;86.3965;52.7469;83.525;276.6206;2.4438E-5;8.8E-7;0;Iridium
14.3421907;0.0002282;86.3966;52.5427;83.4842;276.6613;2.3882E-5;8.7E-7;0;Iridium
14.3421915;0.0002282;86.3967;52.3386;83.3446;276.801;2.3692E-5;8.6E-7;0;Iridium
14.34219226;0.0002278;86.3968;52.1053;83.1592;276.9863;2.3323E-5;8.5E-7;0;Iridium
14.34219226;0.0002278;86.3968;52.1053;83.1592;276.9863;2.3323E-5;8.5E-7;0;Iridium
14.34219292;0.0002274;86.3969;51.9303;83.176;276.9694;2.3207E-5;8.5E-7;0;Iridium
14.34219342;0.0002264;86.397;51.697;83.1082;277.0371;2.1205E-5;7.9E-7;0;Iridium
14.34219402;0.0002264;86.397;51.5221;83.2729;276.8725;2.0955E-5;7.8E-7;0;Iridium
14.34219466;0.0002255;86.3972;51.2887;83.1153;277.0299;1.951E-5;7.4E-7;0;Iridium
14.34219549;0.0002242;86.3973;50.8805;82.5952;277.5498;1.6725E-5;6.7E-7;0;Iridium
14.34219628;0.000223;86.3975;50.5013;82.5068;277.6381;1.5734E-5;6.4E-7;0;Iridium
14.34219405;0.000223;86.3975;50.4429;82.6105;277.5344;7.2172E-6;4.0E-7;0;Iridium
14.34215731;0.0002245;86.3976;50.0345;82.8996;277.2455;7.8274E-6;4.2E-7;0;Iridium
14.34215731;0.0002245;86.3976;50.0345;82.8996;277.2455;7.8274E-6;4.2E-7;0;Iridium
14.34215732;0.0002248;86.3977;49.8305;82.1648;277.9803;8.0563E-6;4.2E-7;0;Iridium
14.34215828;0.0002238;86.3979;49.4222;82.3189;277.8261;9.8404E-6;4.7E-7;0;Iridium
14.34215856;0.000223;86.398;49.1306;82.2754;277.8695;1.0603E-5;4.9E-7;0;Iridium
14.34215859;0.0002226;86.3981;49.0431;82.2877;277.8571;9.5882E-6;4.7E-7;0;Iridium
14.34215935;0.0002216;86.3982;48.7516;82.3126;277.8322;1.3612E-5;5.8E-7;0;Iridium
14.34215959;0.0002213;86.3983;48.5767;82.1345;278.0102;1.3216E-5;5.7E-7;0;Iridium
14.34216072;0.0002205;86.3984;48.3143;82.0551;278.0895;1.912E-5;7.3E-7;0;Iridium
14.342161;0.0002202;86.3984;48.1685;81.9943;278.1502;1.8497E-5;7.2E-7;0;Iridium
14.34216184;0.0002195;86.3985;47.9062;81.9096;278.2348;2.0922E-5;7.8E-7;0;Iridium
14.34216194;0.0002195;86.3986;47.877;81.8745;278.27;2.1358E-5;8.0E-7;0;Iridium
14.34216262;0.000219;86.3986;47.7313;81.8883;278.2561;2.2898E-5;8.4E-7;0;Iridium
14.34216372;0.0002184;86.3987;47.4981;81.8817;278.2626;2.602E-5;9.3E-7;0;Iridium
14.34216378;0.0002184;86.3987;47.4689;81.866;278.2783;2.6051E-5;9.3E-7;0;Iridium
14.34216392;0.000218;86.3988;47.3232;81.7917;278.3526;2.2952E-5;8.4E-7;0;Iridium
14.34216473;0.0002171;86.3988;47.1191;81.8788;278.2654;2.3871E-5;8.7E-7;0;Iridium
14.34216478;0.0002172;86.3988;47.0608;81.8254;278.3188;2.3436E-5;8.5E-7;0;Iridium
14.3421646;0.0002172;86.3989;46.9151;81.7773;278.3669;1.8497E-5;7.2E-7;0;Iridium
14.34216491;0.0002163;86.399;46.711;81.7161;278.428;1.6921E-5;6.7E-7;0;Iridium
14.3421654;0.0002158;86.3991;46.4779;81.7243;278.4198;1.5656E-5;6.4E-7;0;Iridium
14.34216622;0.0002153;86.3992;46.2447;81.8071;278.3369;1.6501E-5;6.6E-7;0;Iridium
14.34216597;0.0002154;86.3992;46.2156;81.7998;278.3442;1.5137E-5;6.2E-7;0;Iridium
14.34216627;0.0002149;86.3992;46.099;81.8252;278.3187;1.4347E-5;6.0E-7;0;Iridium
14.342167;0.0002144;86.3994;45.8367;81.8691;278.2748;1.3848E-5;5.9E-7;0;Iridium
14.34216717;0.0002141;86.3994;45.6618;81.9063;278.2376;1.1905E-5;5.3E-7;0;Iridium
14.34216802;0.0002137;86.3996;45.3995;81.9875;278.1563;1.3038E-5;5.6E-7;0;Iridium
14.34216857;0.0002133;86.3996;45.2247;82.0286;278.1152;1.3895E-5;5.9E-7;0;Iridium
14.34216935;0.000213;86.3997;44.9916;82.0444;278.0994;1.4989E-5;6.2E-7;0;Iridium
14.34217003;0.0002128;86.3998;44.8167;82.0992;278.0446;1.7179E-5;6.8E-7;0;Iridium
14.34217045;0.0002122;86.3999;44.5544;81.9572;278.1865;1.6309E-5;6.5E-7;0;Iridium
14.34217072;0.0002116;86.4;44.4088;81.9775;278.1661;1.5067E-5;6.2E-7;0;Iridium
14.34217148;0.0002107;86.4001;44.1465;82.064;278.0795;1.7117E-5;6.8E-7;0;Iridium
14.34217143;0.0002107;86.4001;44.1174;82.0763;278.0672;1.6841E-5;6.7E-7;0;Iridium
14.34217128;0.0002105;86.4002;43.9717;82.0822;278.0613;1.3214E-5;5.7E-7;0;Iridium
14.34217135;0.0002102;86.4003;43.7094;82.1089;278.0346;1.226E-5;5.4E-7;0;Iridium
14.34217165;0.00021;86.4003;43.5638;82.089;278.0544;1.1918E-5;5.3E-7;0;Iridium
14.3421719;0.00021;86.4004;43.5055;82.1906;277.9528;1.4127E-5;5.9E-7;0;Iridium
14.34217313;0.0002092;86.4004;43.1558;82.0369;278.1064;1.7201E-5;6.8E-7;0;Iridium
14.34217397;0.0002084;86.4005;42.9519;82.0971;278.0461;2.0454E-5;7.7E-7;0;Iridium
14.34217397;0.0002084;86.4005;42.9519;82.0971;278.0461;2.0454E-5;7.7E-7;0;Iridium
14.34217506;0.000208;86.4006;42.7479;82.2349;277.9083;2.4043E-5;8.7E-7;0;Iridium
14.34217608;0.0002071;86.4006;42.544;82.1594;277.9837;2.6501E-5;9.4E-7;0;Iridium
14.34217702;0.0002067;86.4007;42.3109;82.4243;277.7187;2.7573E-5;9.7E-7;0;Iridium
14.34217781;0.0002061;86.4007;42.1361;82.4315;277.7115;2.9195E-5;1.02E-6;0;Iridium
14.3421787;0.0002057;86.4008;41.903;82.482;277.661;2.8848E-5;1.01E-6;0;Iridium
14.34217909;0.0002054;86.4009;41.6991;82.7738;277.3691;2.826E-5;9.9E-7;0;Iridium
14.34217909;0.0002054;86.4009;41.6991;82.7738;277.3691;2.826E-5;9.9E-7;0;Iridium
14.34217969;0.000205;86.4009;41.4952;82.7734;277.3694;2.6928E-5;9.5E-7;0;Iridium
14.34218016;0.0002039;86.401;41.2913;82.8702;277.2725;2.5108E-5;9.0E-7;0;Iridium
14.34218081;0.0002037;86.401;41.0583;83.1508;276.992;2.3745E-5;8.6E-7;0;Iridium
14.34218178;0.0002031;86.4011;40.8835;83.2166;276.9261;2.4977E-5;9.0E-7;0;Iridium
14.3421823;0.000203;86.4011;40.6504;83.4379;276.7048;2.2301E-5;8.2E-7;0;Iridium
14.34218309;0.000203;86.4012;40.3299;83.6513;276.4913;2.102E-5;7.9E-7;0;Iridium
14.34218326;0.0002031;86.4013;40.2425;83.574;276.5687;1.897E-5;7.3E-7;0;Iridium
14.34218378;0.0002028;86.4013;40.0677;83.3532;276.7894;1.8359E-5;7.1E-7;0;Iridium
14.34218442;0.0002023;86.4013;39.8347;83.3548;276.7878;1.7221E-5;6.8E-7;0;Iridium
14.34218506;0.0002017;86.4014;39.6308;83.5554;276.5871;1.6979E-5;6.7E-7;0;Iridium
14.34218506;0.0002017;86.4014;39.6308;83.5554;276.5871;1.6979E-5;6.7E-7;0;Iridium
14.34218572;0.0002018;86.4014;39.3978;83.8279;276.3147;1.6511E-5;6.6E-7;0;Iridium
14.34218706;0.0002017;86.4015;38.9899;84.0749;276.0677;1.7723E-5;6.9E-7;0;Iridium
14.34218799;0.0002013;86.4016;38.6113;84.5511;275.5914;1.8251E-5;7.1E-7;0;Iridium
14.3421883;0.0002009;86.4017;38.3783;84.7122;275.4303;1.772E-5;6.9E-7;0;Iridium
14.3421883;0.0002009;86.4017;38.3783;84.7122;275.4303;1.772E-5;6.9E-7;0;Iridium
14.34218854;0.000201;86.4018;38.1454;84.9995;275.143;1.7189E-5;6.8E-7;0;Iridium
14.3421892;0.0002008;86.4018;37.9706;85.3099;274.8326;1.9201E-5;7.4E-7;0;Iridium
14.34218978;0.0002014;86.4019;37.7376;85.6973;274.4453;1.9853E-5;7.5E-7;0;Iridium
14.34219083;0.0002014;86.4019;37.5628;85.739;274.4036;2.353E-5;8.6E-7;0;Iridium
14.3421912;0.0002016;86.4018;37.3298;85.8121;274.3305;2.2554E-5;8.3E-7;0;Iridium
14.34219178;0.0002012;86.4019;37.1259;85.7595;274.3831;2.3574E-5;8.6E-7;0;Iridium
14.34219199;0.0002012;86.4019;37.0094;85.6591;274.4835;2.3678E-5;8.6E-7;0;Iridium
14.34219227;0.0002009;86.4019;36.922;85.7795;274.3631;2.2968E-5;8.4E-7;0;Iridium
14.34219332;0.0002005;86.4019;36.7181;85.838;274.3045;2.5305E-5;9.1E-7;0;Iridium
14.34219332;0.0002005;86.4019;36.7181;85.838;274.3045;2.5305E-5;9.1E-7;0;Iridium
14.34219399;0.0002003;86.4019;36.4851;85.9177;274.2248;2.4968E-5;9.0E-7;0;Iridium
14.3421949;0.0002005;86.4019;36.2812;86.364;273.7785;2.6243E-5;9.3E-7;0;Iridium
14.3421963;0.0002;86.4018;35.9025;86.5525;273.59;2.6063E-5;9.3E-7;0;Iridium
14.34219686;0.0002005;86.4018;35.6694;86.4411;273.7014;2.3953E-5;8.7E-7;0;Iridium
14.34219782;0.0002006;86.4019;35.2908;86.9033;273.2392;2.1414E-5;8.0E-7;0;Iridium
14.34219777;0.0002008;86.4019;35.2617;86.9456;273.1969;2.0491E-5;7.7E-7;0;Iridium
14.34224971;0.0002759;86.3989;35.0584;75.3274;284.8228;1.9547E-5;7.5E-7;0;Iridium
14.34216709;0.0002134;86.4018;34.8247;89.6113;270.5327;1.7997E-5;7.0E-7;0;Iridium
14.34216056;0.0002057;86.402;34.6209;87.1035;273.0397;1.7655E-5;6.9E-7;0;Iridium
14.34216056;0.0002057;86.402;34.6209;87.1035;273.0397;1.7655E-5;6.9E-7;0;Iridium
14.34216;0.0002057;86.402;34.388;87.0553;273.0878;-5.0808E-8;2.0E-7;0;Iridium
14.34215995;0.0002056;86.4019;34.1551;87.2732;272.8699;-2.6608E-6;1.2E-7;0;Iridium
14.34216008;0.000205;86.402;33.9804;87.2303;272.9127;-3.4599E-6;1.0E-7;0;Iridium
14.34216161;0.0002053;86.402;33.7182;87.5441;272.599;1.1515E-5;5.2E-7;0;Iridium
14.34216161;0.0002053;86.402;33.7182;87.5441;272.599;1.1515E-5;5.2E-7;0;Iridium
14.34216227;0.0002051;86.402;33.5435;87.6551;272.4879;1.4341E-5;6.0E-7;0;Iridium
14.34216259;0.0002056;86.402;33.2813;87.5568;272.5863;1.2932E-5;5.6E-7;0;Iridium
14.34216302;0.0002055;86.402;33.1357;87.7547;272.3884;1.3847E-5;5.9E-7;0;Iridium
14.34216439;0.0002056;86.402;32.9027;87.8017;272.3415;2.0741E-5;7.8E-7;0;Iridium
14.34216465;0.0002056;86.402;32.8445;87.7489;272.3942;2.1679E-5;8.0E-7;0;Iridium
14.34216505;0.0002057;86.402;32.6988;87.9242;272.2189;2.194E-5;8.1E-7;0;Iridium
14.34216609;0.0002059;86.402;32.4658;88.0567;272.0864;2.5402E-5;9.1E-7;0;Iridium
14.34216609;0.0002059;86.402;32.4658;88.0567;272.0864;2.5402E-5;9.1E-7;0;Iridium
14.34216626;0.0002059;86.402;32.4367;88.006;272.1372;2.6013E-5;9.3E-7;0;Iridium
14.3421671;0.0002059;86.402;32.2911;88.265;271.8782;2.9037E-5;1.01E-6;0;Iridium
14.34216708;0.000207;86.4019;32.029;88.3642;271.7791;2.3417E-5;8.5E-7;0;Iridium
14.34216716;0.0002069;86.4019;31.9998;88.3852;271.7581;2.2909E-5;8.4E-7;0;Iridium
14.34216716;0.0002069;86.4019;31.9998;88.3852;271.7581;2.2909E-5;8.4E-7;0;Iridium
14.3421679;0.0002071;86.4019;31.8833;88.5996;271.5437;2.6495E-5;9.4E-7;0;Iridium
14.34216817;0.0002077;86.4018;31.5629;88.7877;271.3557;2.1672E-5;8.0E-7;0;Iridium
14.3421685;0.0002082;86.4018;31.4464;88.9162;271.2272;2.2511E-5;8.3E-7;0;Iridium
14.34216901;0.0002085;86.4018;31.2134;88.6882;271.4552;2.0655E-5;7.8E-7;0;Iridium
14.34216986;0.0002084;86.4018;31.0386;88.8446;271.2989;2.3533E-5;8.6E-7;0;Iridium
14.34217092;0.0002085;86.4017;30.893;89.0614;271.082;2.6801E-5;9.5E-7;0;Iridium
14.34217156;0.0002086;86.4017;30.6891;89.2088;270.9347;2.6053E-5;9.3E-7;0;Iridium
